AKEBONO (EXOS-D)        
1 19822U 89016A   17118.57524892  .00011584  87563-6  23852-3 0  9993
2 19822  75.0442 347.7517 1919094 257.5794  80.5027 11.66517295903469
HST                     
1 20580U 90037B   17118.93998804  .00000727  00000-0  33999-4 0  9995
2 20580  28.4704 332.9311 0002739   7.6629 104.9166 15.08749554282754
POLAR                   
1 23802U 96013A   17116.37265279 -.00000198  00000-0  00000-0 0  9990
2 23802  78.4004 271.3370 7396639 324.9472   3.3191  1.29842447101502
SWAS                    
1 25560U 98071A   17118.95183092  .00000371  00000-0  43898-4 0  9995
2 25560  69.9006  24.7250 0011082 264.0325  95.9568 14.93354819998010
ORSTED                  
1 25635U 99008B   17118.85587466  .00000150  00000-0  43066-4 0  9993
2 25635  96.4843  35.8891 0140307  45.3876 315.8667 14.47985279958812
CXO                     
1 25867U 99040B   17119.12170435  .00000402  00000-0  00000-0 0  9998
2 25867  74.3104 291.0502 6830407 253.1618   0.2465  0.37796604 15861
XMM-NEWTON              
1 25989U 99066A   17119.82667602 -.00000175  00000-0  00000-0 0  9993
2 25989  68.8695   6.4454 8217924  95.7728 359.6385  0.50134877 20647
TERRA                   
1 25994U 99068A   17118.76280116  .00000128  00000-0  38489-4 0  9997
2 25994  98.2110 194.5047 0000813  99.8748 260.2521 14.57108495923476
CLUSTER II-FM6 (SALSA)  
1 26410U 00041A   17119.89541367  .00000441  00000-0  00000-0 0  9999
2 26410 130.9778 332.5439 4517370 150.4410   0.8171  0.44238109 17287
CLUSTER II-FM7 (SAMBA)  
1 26411U 00041B   17119.88089900  .00000347  00000-0  00000-0 0  9994
2 26411 129.9985 333.9760 5141463 158.1074   0.9170  0.44226846  5558
CLUSTER II-FM5 (RUMBA)  
1 26463U 00045A   17119.89829580  .00000407  00000-0  00000-0 0  9999
2 26463 133.5259 332.2469 4847143 156.1406   0.8838  0.44226036  5452
CLUSTER II-FM8 (TANGO)  
1 26464U 00045B   17116.88873786  .00000598  00000-0  00000-0 0  9994
2 26464 130.9759 332.5170 4525140 150.3816 245.2838  0.44218919  5537
ODIN                    
1 26702U 01007A   17118.63765318  .00000487  00000-0  36546-4 0  9999
2 26702  97.6127 136.2327 0010019 214.4165 145.6414 15.07121011883585
TIMED                   
1 26998U 01055B   17118.86284354  .00000176  00000-0  23296-4 0  9993
2 26998  74.0733  53.2707 0000407 240.5281 119.5859 14.87885560834091
RHESSI                  
1 27370U 02004A   17118.86654886  .00002957  00000-0  10962-3 0  9998
2 27370  38.0340 349.3877 0010921 357.6222   2.4494 15.28280700838713
INTEGRAL                
1 27540U 02048A   17121.02169499  .00000791  00000-0  00000-0 0  9991
2 27540  50.0109 190.9287 8237445 261.6280   0.0190  0.37591981  3443
CORIOLIS                
1 27640U 03001A   17118.94377976  .00000004  00000-0  22972-4 0  9993
2 27640  98.7445 129.8334 0015279  89.2972 329.0852 14.18940373740986
SORCE                   
1 27651U 03004A   17118.79844551  .00000274  00000-0  42971-4 0  9999
2 27651  39.9955 236.9365 0024002 252.2688 107.5481 14.88646254773425
MOST                    
1 27843U 03031D   17118.95170838 -.00000023  00000-0  96307-5 0  9996
2 27843  98.7146 127.7882 0010482 150.1231 210.0546 14.20545873716960
SCISAT 1                
1 27858U 03036A   17118.93371305  .00000055  00000-0  12816-4 0  9993
2 27858  73.9321 285.4276 0007331  30.6326 329.5274 14.77126191738509
SWIFT                   
1 28485U 04047A   17118.34413637  .00001179  00000-0  51900-4 0  9998
2 28485  20.5562 123.1697 0011240 329.6985  30.2799 15.03688232680673
FORMOSAT-3 FM6          
1 29047U 06011A   17118.89083403  .00000045  00000-0  34218-4 0  9994
2 29047  71.9785 287.7704 0051627 237.9361 121.6756 14.28575609577710
FORMOSAT-3 FM1          
1 29048U 06011B   17118.54403042  .00000175  00000-0  85588-4 0  9992
2 29048  71.9679 200.6848 0044731 195.6143 301.2316 14.28508073580153
FORMOSAT-3 FM5          
1 29049U 06011C   17118.71569963  .00000092  00000-0  52650-4 0  9999
2 29049  72.0217   5.5118 0036471 231.7414 128.0439 14.28559600575967
FORMOSAT-3 FM3          
1 29050U 06011D   17118.90858021  .00000258  00000-0  65009-4 0  9994
2 29050  72.0157 267.8762 0051726 246.9913 112.5779 14.58493317589282
FORMOSAT-3 FM4          
1 29051U 06011E   17118.52805652  .00000060  00000-0  39179-4 0  9995
2 29051  72.0053 270.0531 0067055 106.7227 254.1282 14.28583436578527
FORMOSAT-3 FM2          
1 29052U 06011F   17118.95520382  .00000115  00000-0  61360-4 0  9995
2 29052  72.0348 339.9965 0040845 194.4163 165.5812 14.28675899576080
CLOUDSAT                
1 29107U 06016A   17118.92168482  .00000057  00000-0  22573-4 0  9995
2 29107  98.1995  63.6410 0001129 117.1143 243.0170 14.57103088585094
CALIPSO                 
1 29108U 06016B   17118.92053262  .00000168  00000-0  47435-4 0  9992
2 29108  98.2004  63.1911 0001379  81.8481 278.2873 14.57104482585164
HINODE (SOLAR-B)        
1 29479U 06041A   17118.92368575  .00000119  00000-0  31466-4 0  9990
2 29479  98.1664 123.7501 0017522  17.6435 342.5373 14.64813340566175
SJ-6C                   
1 29505U 06046A   17118.86340201 -.00000251  00000-0 -18014-4 0  9997
2 29505  97.8199 121.0215 0001318 259.8303 100.2764 14.94313118572505
SJ-6D                   
1 29506U 06046B   17118.86218804 -.00000358  00000-0 -28772-4 0  9991
2 29506  97.8378 120.3008 0002001   8.8167 351.3099 14.93258199572198
AGILE                   
1 31135U 07013A   17118.18018323  .00003269  00000-0  72507-4 0  9993
2 31135   2.4672 138.3785 0013255 299.6049  60.2685 15.29560842556045
AIM                     
1 31304U 07015A   17118.91990994  .00000914  00000-0  57420-4 0  9998
2 31304  97.9981 295.5944 0004082 316.4247  43.6659 15.11979010547491
FGRST (GLAST)           
1 33053U 08029A   17118.93771051  .00000725  00000-0  25180-4 0  9998
2 33053  25.5834 338.8823 0012735  73.2320 286.9611 15.10877776489848
IBEX                    
1 33401U 08051A   17118.19398348 -.00000967  00000-0  00000-0 0  9991
2 33401  24.8196  94.6754 6402848  21.4922 358.2466  0.11384780  3605
WISE                    
1 36119U 09071A   17118.92918717  .00001400  00000-0  53734-4 0  9990
2 36119  97.4549 146.7000 0004258 114.3909 245.7775 15.28175245408733
SDO                     
1 36395U 10005A   17118.53608147 -.00000046  00000-0  00000-0 0  9995
2 36395  28.7075 141.3086 0000822 158.2909   8.3357  1.00273395 26606
CRYOSAT 2               
1 36508U 10013A   17118.88834777 -.00000001  00000-0 -10905-5 0  9990
2 36508  92.0197 190.4303 0009172 136.9458 223.2468 14.52179619374025
GCOM-W1 (SHIZUKU)       
1 38337U 12025A   17118.92370642  .00000062  00000-0  23778-4 0  9994
2 38337  98.2016  59.8793 0001366 113.1090 286.9691 14.57098232263197
NUSTAR                  
1 38358U 12031A   17118.44526983  .00001157  00000-0  48308-4 0  9994
2 38358   6.0271 310.2937 0012509 296.8825  63.0025 14.87723181265020
RBSP A                  
1 38752U 12046A   17117.49155939 -.00000077  00000-0 -69536-3 0  9998
2 38752   9.6668 215.6893 6815048  89.9619 341.5322  2.68115413 45516
RBSP B                  
1 38753U 12046B   17118.51245752 -.00001894  00000-0 -21185-1 0  9990
2 38753   9.6762 225.2269 6832002  72.0970 347.3781  2.65137753 45216
NEOSSAT                 
1 39089U 13009D   17118.64351127  .00000020  00000-0  22735-4 0  9994
2 39089  98.5589 322.5917 0012273  85.6108 274.6479 14.34382061218289
BRITE-AUSTRIA           
1 39091U 13009F   17118.81043281  .00000036  00000-0  27866-4 0  9992
2 39091  98.5549 324.1045 0011724  94.1196 266.1330 14.35023914218406
UNIBRITE                
1 39092U 13009G   17118.80547196  .00000025  00000-0  24303-4 0  9997
2 39092  98.5558 323.7955 0010596  88.1467 272.0932 14.34898835218395
IRIS                    
1 39197U 13033A   17118.55004743  .00000133  00000-0  25377-4 0  9990
2 39197  97.9256 300.8287 0027217 338.8300  21.1782 14.78381422206752
HISAKI (SPRINT-A)       
1 39253U 13049A   17118.83052858  .00000026  00000-0 -50976-4 0  9996
2 39253  29.7201 255.2795 0137326 339.2162  20.2866 13.55170512178491
CASSIOPE                
1 39265U 13055A   17118.95083716  .00008796  00000-0  25649-3 0  9995
2 39265  80.9717  66.0120 0690453  35.5633 328.9582 14.22460843184516
DANDE                   
1 39267U 13055C   17118.91260545  .00006483  00000-0  19185-3 0  9999
2 39267  81.0126  76.5354 0715718  52.7219 313.7043 14.16750879181719
STSAT-3                 
1 39422U 13066G   17118.83829248  .00000524  00000-0  60571-4 0  9992
2 39422  97.6615 182.9092 0024378  40.4829 319.8143 14.89421138186586
BRITE-PL                
1 39431U 13066R   17118.87787425  .00000039  00000-0  19182-4 0  9999
2 39431  97.7026 101.0200 0201229 268.3656  89.4481 14.46832117181314
SWARM B                 
1 39451U 13067A   17118.94470397  .00000619  00000-0  26384-4 0  9993
2 39451  87.7508 262.5641 0001780 109.5738 250.5700 15.20967529175800
SWARM A                 
1 39452U 13067B   17118.91748657  .00001793  00000-0  40985-4 0  9995
2 39452  87.3534 188.4431 0003126 105.7810 254.3791 15.42053417192508
SWARM C                 
1 39453U 13067C   17118.91741229  .00001808  00000-0  41334-4 0  9990
2 39453  87.3537 189.8582 0003164 105.8512 254.3093 15.42054056192466
BRITE-TORONTO           
1 40020U 14033L   17118.70163242  .00000118  00000-0  28546-4 0  9999
2 40020  97.8433 351.6844 0088800 123.8987 237.0704 14.66377029152843
OCO 2                   
1 40059U 14035A   17118.91461077  .00000072  00000-0  26092-4 0  9996
2 40059  98.2011  61.0519 0001634  97.5916 262.5468 14.57109310150206
BRITE-PL 2              
1 40119U 14049B   17118.79522495  .00000221  00000-0  32946-4 0  9997
2 40119  97.9362 204.9570 0016240 248.6336 111.3145 14.84115692145743
RESURS P2               
1 40360U 14087A   17118.86312047  .00001865  00000-0  62109-4 0  9994
2 40360  97.2750 213.4359 0008294 320.5159 179.2011 15.32353635130832
MMS 1                   
1 40482U 15011A   17117.80208333 -.00000628  00000-0  00000-0 0  9997
2 40482  27.8141 310.0064 9023304 152.6411 165.2102  0.35804616  7487
MMS 2                   
1 40483U 15011B   17114.67361111 -.00000288  00000-0  00000-0 0  9996
2 40483  27.6756 310.1160 9026176 152.6253 123.6208  0.35748658  7455
MMS 3                   
1 40484U 15011C   17109.73150463 -.00000099  00000-0  00000-0 0  9994
2 40484  27.8996 310.1284 9023985 152.3496 209.0785  0.35694751  7433
MMS 4                   
1 40485U 15011D   17118.98322917 -.00000639  00000-0  00000-0 0  9997
2 40485  27.7644 310.0597 9015266 152.6494 318.5520  0.35730765  7465
ASTROSAT                
1 40930U 15052A   17117.72628758  .00000900  00000-0  37879-4 0  9998
2 40930   5.9991 234.9348 0007433 250.9997 108.9509 14.76113038 85483
DAMPE                   
1 41173U 15078A   17118.87690973  .00000298  00000-0  15330-4 0  9999
2 41173  97.2891 128.3114 0013203 337.5412 107.1426 15.23548805 75956
PISAT                   
1 41784U 16059B   17118.72138266  .00000160  00000-0  40315-4 0  9992
2 41784  98.1718 180.7203 0031024 317.2273  42.6515 14.63205506 31342
